satname,norad_id,inclination_deg,eccentricity,mean_motion_rev_per_day,perigee_km,apogee_km,l1,l2
STARLINK-1494,45760,53.052,0.0005465,15.55380847,397.34095665758014,404.75060343617133,1 45760U 20038AG  25346.03667157  .00045201  00000+0  65598-3 0  9997,2 45760  53.0520 221.3868 0005465 135.7330 224.4119 15.55380847303679
STARLINK-1502,45764,53.0537,0.0001331,15.06422805,546.2199101892611,548.0634193698252,1 45764U 20038AL  25345.97683280  .00014004  00000+0  95658-3 0  9995,2 45764  53.0537 250.3781 0001331  80.9664 279.1476 15.06422805303261
STARLINK-1470,45772,53.0524,0.0007309,15.20744855,498.56274347816543,508.6224558069225,1 45772U 20038AU  25346.07377803  .00026567  00000+0  12015-2 0  9999,2 45772  53.0524 218.6525 0007309  74.9581 285.2223 15.20744855303717
STARLINK-1482,45773,53.0529,0.0001398,15.0640789,546.2192159823799,548.1555366780012,1 45773U 20038AV  25346.07450260  .00002686  00000+0  19910-3 0  9997,2 45773  53.0529 229.9364 0001398  82.7179 277.3969 15.06407890303551
STARLINK-1496,45780,53.0532,0.0002219,15.06379446,545.7378048804785,548.8113025280136,1 45780U 20038BC  25345.90864061 -.00008730  00000+0 -56813-3 0  9995,2 45780  53.0532 230.6806 0002219  96.4858 263.6383 15.06379446303511
STARLINK-1497,45781,53.0338,0.0004795,15.67139936,363.85700202644693,370.32567600356197,1 45781U 20038BD  25346.33349537  .00091290  00000+0  83278-3 0  9996,2 45781  53.0338 157.9652 0004795 121.3430 310.2269 15.67139936  5887
STARLINK-1510,45784,53.0224,0.0003941,15.91089147,296.60233164555666,301.86543537593934,1 45784U 20038BG  25346.33349537  .00457451  90942-4  14208-2 0  9999,2 45784  53.0224 128.2850 0003941 296.1340 355.8473 15.91089147  5997
STARLINK-1513,45786,53.0533,0.0001496,15.06412102,546.1384407040905,548.210493895107,1 45786U 20038BJ  25346.07080614 -.00000863  00000+0 -39045-4 0  9992,2 45786  53.0533 229.9578 0001496 100.5874 259.5284 15.06412102303551
STARLINK-1522,46027,53.0545,0.0001591,15.06399983,546.1097870769727,548.3134330046887,1 46027U 20055A   25346.18417302  .00001344  00000+0  10913-3 0  9995,2 46027  53.0545 159.4443 0001591  94.1604 265.9567 15.06399983295697
STARLINK-1523,46028,53.0578,0.0001725,15.06399385,546.0188198739552,548.4080657767299,1 46028U 20055B   25345.86716005 -.00000187  00000+0  63657-5 0  9992,2 46028  53.0578 160.8718 0001725 114.2659 245.8511 15.06399385295667
STARLINK-1526,46029,53.0537,0.0001888,15.06398876,545.9074963803978,548.5225092966703,1 46029U 20055C   25345.52805810 -.00000283  00000+0 -97124-7 0  9995,2 46029  53.0537 162.3888 0001888  89.8916 270.2290 15.06398876295605
STARLINK-1555,46032,53.0532,0.0001603,15.0640755,546.0782887077585,548.298548036888,1 46032U 20055F   25346.17678680  .00001101  00000+0  92800-4 0  9995,2 46032  53.0532 159.4775 0001603  81.8316 278.2855 15.06407550295703
STARLINK-1556,46033,53.0521,0.0001558,15.06421999,546.0651761914014,548.2230937930644,1 46033U 20055G   25346.22469831  .00002458  00000+0  18376-3 0  9999,2 46033  53.0521 159.2637 0001558  73.4148 286.7012 15.06421999295685
STARLINK-1557,46034,53.0542,0.0001299,15.06401782,546.3064943020972,548.1056984385341,1 46034U 20055H   25345.49858011  .00002592  00000+0  19283-3 0  9997,2 46034  53.0542 162.5212 0001299  98.8500 261.2636 15.06401782295576
STARLINK-1558,46035,53.053,0.0001378,15.06418949,546.1991775627075,548.1077876197105,1 46035U 20055J   25345.50595191  .00004817  00000+0  34186-3 0  9998,2 46035  53.0530 162.4914 0001378  92.0853 268.0294 15.06418949295609
STARLINK-1560,46036,53.0533,0.0001442,15.06406303,546.1936077419923,548.1908726948714,1 46036U 20055K   25346.22101897  .00002606  00000+0  19375-3 0  9992,2 46036  53.0533 159.2838 0001442  79.1766 280.9386 15.06406303295711
STARLINK-1567,46038,53.0545,0.0001642,15.06404831,546.0596118566164,548.3338914606602,1 46038U 20055M   25345.50226464  .00004883  00000+0  34642-3 0  9995,2 46038  53.0545 162.5079 0001642  83.7876 276.3300 15.06404831295590
STARLINK-1569,46039,53.0498,0.000137,15.06399885,546.2631375960118,548.1606831974605,1 46039U 20055N   25345.50963294  .00000644  00000+0  62121-4 0  9990,2 46039  53.0498 162.4730 0001370  90.1188 269.9958 15.06399885295596
STARLINK-1582,46043,53.0554,0.0001521,15.06400423,546.1569161860298,548.2636068229785,1 46043U 20055S   25346.18046927  .00000622  00000+0  60658-4 0  9994,2 46043  53.0554 159.4618 0001521  92.4357 267.6806 15.06400423295695
STARLINK-1591,46045,53.055,0.0001244,15.06401285,546.3461067304715,548.0691324718291,1 46045U 20055U   25345.80820065  .00002467  00000+0  18441-3 0  9998,2 46045  53.0550 161.1336 0001244  89.9833 270.1298 15.06401285295626
STARLINK-1524,46047,53.0521,0.0001108,15.06401856,546.4385415814832,547.9731975613804,1 46047U 20055W   25346.15928369  .00002086  00000+0  15887-3 0  9993,2 46047  53.0521 149.5569 0001108  80.2941 279.8173 15.06401856295832
STARLINK-1527,46048,53.0513,0.0001193,15.06381725,546.4413679823929,548.0937695124958,1 46048U 20055X   25345.49214262 -.00001543  00000+0 -84747-4 0  9991,2 46048  53.0513 152.5508 0001193  75.3313 284.7808 15.06381725295712
STARLINK-1540,46051,53.055,0.0001292,15.0639521,546.3314817068594,548.1209955677232,1 46051U 20055AA  25345.45895414  .00000194  00000+0  31899-4 0  9994,2 46051  53.0550 152.7022 0001292  79.1718 280.9416 15.06395210295741
STARLINK-1541,46052,53.0523,0.0001481,15.06376378,546.2583020684478,548.3096117558853,1 46052U 20055AB  25346.17404602 -.00001829  00000+0 -10399-3 0  9999,2 46052  53.0523 149.4883 0001481  91.5099 268.6059 15.06376378295818
STARLINK-1543,46053,53.0534,0.0001454,15.06394212,546.2223491218137,548.2362456410929,1 46053U 20055AC  25346.17770911 -.00000975  00000+0 -46599-4 0  9992,2 46053  53.0534 149.4735 0001454  88.4937 271.6219 15.06394212295845
STARLINK-1548,46054,53.0536,0.0001357,15.06397643,546.2790110336346,548.1585525928176,1 46054U 20055AD  25345.45526842  .00000675  00000+0  64219-4 0  9999,2 46054  53.0536 152.7160 0001357  89.5790 270.5354 15.06397643295735
STARLINK-1554,46055,53.0556,0.0001639,15.06409629,546.0469868055688,548.3171063890431,1 46055U 20055AE  25346.17033224  .00000227  00000+0  34161-4 0  9993,2 46055  53.0556 149.5050 0001639  89.0123 271.1054 15.06409629295842
STARLINK-1564,46058,53.0544,0.000131,15.06399693,546.3052780648723,548.1197196335715,1 46058U 20055AH  25346.18145280  .00001648  00000+0  12948-3 0  9999,2 46058  53.0544 149.9187 0001310  88.0790 272.0349 15.06399693295837
